[{"OBJECT_NAME":"STARLINK-36160","OBJECT_ID":"2025-286M","EPOCH":"2026-03-09T22:44:31.582464","MEAN_MOTION":15.30186826,"ECCENTRICITY":0.00015011,"INCLINATION":53.1612,"RA_OF_ASC_NODE":357.4384,"ARG_OF_PERICENTER":63.5832,"MEAN_ANOMALY":296.5322,"EPHEMERIS_TYPE":0,"CLASSIFICATION_TYPE":"U","NORAD_CAT_ID":66936,"ELEMENT_SET_NO":999,"REV_AT_EPOCH":1544,"BSTAR":0.0015218668,"MEAN_MOTION_DOT":0.00044969,"MEAN_MOTION_DDOT":0},{"OBJECT_NAME":"ZK-1A R\/B","OBJECT_ID":"2025-256C","EPOCH":"2026-03-09T22:50:51.933408","MEAN_MOTION":15.05195406,"ECCENTRICITY":0.02187008,"INCLINATION":98.3035,"RA_OF_ASC_NODE":148.2706,"ARG_OF_PERICENTER":314.6999,"MEAN_ANOMALY":43.659,"EPHEMERIS_TYPE":0,"CLASSIFICATION_TYPE":"U","NORAD_CAT_ID":66411,"ELEMENT_SET_NO":999,"REV_AT_EPOCH":1815,"BSTAR":0.00055908382,"MEAN_MOTION_DOT":0.00013638,"MEAN_MOTION_DDOT":0}]
